{"type": "FeatureCollection", "features": [ {"type": "Feature", "properties": {"norad_id": 38779, "name": "GSAT-10 (GAGAN/PRN 128)", "group": "gnss", "lat": 0.022920527888775688, "lon": 36.31981972206256, "alt_km": 35785.873847073075, "timestamp": "2025-12-08T15:42:50.032879+00:00", "meta": {"OBJECT_NAME": "GSAT-10 (GAGAN/PRN 128)", "OBJECT_ID": "2012-051B", "EPOCH": "2025-12-08T03:43:31.836576", "MEAN_MOTION": 1.0027333, "ECCENTRICITY": 0.00021921, "INCLINATION": 0.0193, "RA_OF_ASC_NODE": 264.1552, "ARG_OF_PERICENTER": 223.6897, "MEAN_ANOMALY": 88.1837, "EPHEMERIS_TYPE": 0, "CLASSIFICATION_TYPE": "U", "NORAD_CAT_ID": 38779, "ELEMENT_SET_NO": 999, "REV_AT_EPOCH": 4818, "BSTAR": 0, "MEAN_MOTION_DOT": -1.62e-06, "MEAN_MOTION_DDOT": 0}, "tle": {"line1": "1 38779U 12051B   25342.15522959 -.00000162  00000+0  00000+0 0  9995", "line2": "2 38779   0.0193 264.1552 0002192 223.6897  88.1837  1.00273330 48180"}}, "geometry": {"type": "Point", "coordinates": [36.31981972206256, 0.022920527888775688]}}, {"type": "Feature", "properties": {"norad_id": 38833, "name": "GPS BIIF-3  (PRN 24)", "group": "gnss", "lat": -25.847187334855942, "lon": -7.623110146634204, "alt_km": 20582.329374710334, "timestamp": "2025-12-08T15:42:50.032891+00:00", "meta": {"OBJECT_NAME": "GPS BIIF-3  (PRN 24)", "OBJECT_ID": "2012-053A", "EPOCH": "2025-12-07T20:46:13.738656", "MEAN_MOTION": 2.00564906, "ECCENTRICITY": 0.01756617, "INCLINATION": 53.5567, "RA_OF_ASC_NODE": 151.4383, "ARG_OF_PERICENTER": 63.924, "MEAN_ANOMALY": 297.8703, "EPHEMERIS_TYPE": 0, "CLASSIFICATION_TYPE": "U", "NORAD_CAT_ID": 38833, "ELEMENT_SET_NO": 999, "REV_AT_EPOCH": 9560, "BSTAR": 0, "MEAN_MOTION_DOT": 5.3e-07, "MEAN_MOTION_DDOT": 0}, "tle": {"line1": "1 38833U 12053A   25341.86543679  .00000053  00000+0  00000+0 0  9995", "line2": "2 38833  53.5567 151.4383 0175661  63.9240 297.8703  2.00564906 95601"}}, "geometry": {"type": "Point", "coordinates": [-7.623110146634204, -25.847187334855942]}}, {"type": "Feature", "properties": {"norad_id": 38857, "name": "GSAT0103 (GALILEO-FM3)", "group": "gnss", "lat": -50.66384149484754, "lon": -16.885658579924076, "alt_km": 23220.964311413503, "timestamp": "2025-12-08T15:42:50.032903+00:00", "meta": {"OBJECT_NAME": "GSAT0103 (GALILEO-FM3)", "OBJECT_ID": "2012-055A", "EPOCH": "2025-12-06T11:43:28.953984", "MEAN_MOTION": 1.7047325, "ECCENTRICITY": 0.00024686, "INCLINATION": 55.6879, "RA_OF_ASC_NODE": 106.8382, "ARG_OF_PERICENTER": 267.747, "MEAN_ANOMALY": 92.1776, "EPHEMERIS_TYPE": 0, "CLASSIFICATION_TYPE": "U", "NORAD_CAT_ID": 38857, "ELEMENT_SET_NO": 999, "REV_AT_EPOCH": 8172, "BSTAR": 0, "MEAN_MOTION_DOT": 7e-08, "MEAN_MOTION_DDOT": 0}, "tle": {"line1": "1 38857U 12055A   25340.48852956  .00000007  00000+0  00000+0 0  9990", "line2": "2 38857  55.6879 106.8382 0002468 267.7470  92.1776  1.70473250 81723"}}, "geometry": {"type": "Point", "coordinates": [-16.885658579924076, -50.66384149484754]}}, {"type": "Feature", "properties": {"norad_id": 38953, "name": "BEIDOU-2 G6 (C02)", "group": "gnss", "lat": -2.4126165897204666, "lon": 37.51359887990219, "alt_km": 35759.71129088537, "timestamp": "2025-12-08T15:42:50.032914+00:00", "meta": {"OBJECT_NAME": "BEIDOU-2 G6 (C02)", "OBJECT_ID": "2012-059A", "EPOCH": "2025-12-08T01:04:51.660768", "MEAN_MOTION": 1.0027016, "ECCENTRICITY": 0.00076578, "INCLINATION": 3.9371, "RA_OF_ASC_NODE": 75.5489, "ARG_OF_PERICENTER": 289.4213, "MEAN_ANOMALY": 172.3411, "EPHEMERIS_TYPE": 0, "CLASSIFICATION_TYPE": "U", "NORAD_CAT_ID": 38953, "ELEMENT_SET_NO": 999, "REV_AT_EPOCH": 4799, "BSTAR": 0, "MEAN_MOTION_DOT": -1.74e-06, "MEAN_MOTION_DDOT": 0}, "tle": {"line1": "1 38953U 12059A   25342.04504237 -.00000174  00000+0  00000+0 0  9997", "line2": "2 38953   3.9371  75.5489 0007657 289.4213 172.3411  1.00270160 47990"}}, "geometry": {"type": "Point", "coordinates": [37.51359887990219, -2.4126165897204666]}}, {"type": "Feature", "properties": {"norad_id": 38977, "name": "LUCH 5B (SDCM/PRN 125)", "group": "gnss", "lat": -9.163107080332265, "lon": -63.24215093301697, "alt_km": 35769.11429287437, "timestamp": "2025-12-08T15:42:50.032928+00:00", "meta": {"OBJECT_NAME": "LUCH 5B (SDCM/PRN 125)", "OBJECT_ID": "2012-061A", "EPOCH": "2025-12-07T23:49:43.593888", "MEAN_MOTION": 1.00272278, "ECCENTRICITY": 0.00073357, "INCLINATION": 10.0707, "RA_OF_ASC_NODE": 51.751, "ARG_OF_PERICENTER": 190.712, "MEAN_ANOMALY": 175.63, "EPHEMERIS_TYPE": 0, "CLASSIFICATION_TYPE": "U", "NORAD_CAT_ID": 38977, "ELEMENT_SET_NO": 999, "REV_AT_EPOCH": 4769, "BSTAR": 0, "MEAN_MOTION_DOT": -1.39e-06, "MEAN_MOTION_DDOT": 0}, "tle": {"line1": "1 38977U 12061A   25341.99286567 -.00000139  00000+0  00000+0 0  9993", "line2": "2 38977  10.0707  51.7510 0007335 190.7120 175.6300  1.00272278 47695"}}, "geometry": {"type": "Point", "coordinates": [-63.24215093301697, -9.163107080332265]}}, {"type": "Feature", "properties": {"norad_id": 39155, "name": "COSMOS 2485 (747)", "group": "gnss", "lat": -20.00780187560374, "lon": -90.36218693981206, "alt_km": 19076.88724488801, "timestamp": "2025-12-08T15:42:50.032940+00:00", "meta": {"OBJECT_NAME": "COSMOS 2485 (747)", "OBJECT_ID": "2013-019A", "EPOCH": "2025-12-05T02:32:45.729312", "MEAN_MOTION": 2.13102875, "ECCENTRICITY": 0.00246247, "INCLINATION": 65.3094, "RA_OF_ASC_NODE": 80.124, "ARG_OF_PERICENTER": 229.2984, "MEAN_ANOMALY": 130.4888, "EPHEMERIS_TYPE": 0, "CLASSIFICATION_TYPE": "U", "NORAD_CAT_ID": 39155, "ELEMENT_SET_NO": 999, "REV_AT_EPOCH": 9814, "BSTAR": 0, "MEAN_MOTION_DOT": -2.1e-07, "MEAN_MOTION_DDOT": 0}, "tle": {"line1": "1 39155U 13019A   25339.10608483 -.00000021  00000+0  00000+0 0  9991", "line2": "2 39155  65.3094  80.1240 0024624 229.2984 130.4888  2.13102875 98144"}}, "geometry": {"type": "Point", "coordinates": [-90.36218693981206, -20.00780187560374]}}, {"type": "Feature", "properties": {"norad_id": 39166, "name": "GPS BIIF-4  (PRN 27)", "group": "gnss", "lat": -40.15594335449625, "lon": -120.00401912533214, "alt_km": 20250.11890020678, "timestamp": "2025-12-08T15:42:50.032951+00:00", "meta": {"OBJECT_NAME": "GPS BIIF-4  (PRN 27)", "OBJECT_ID": "2013-023A", "EPOCH": "2025-12-07T05:32:23.722368", "MEAN_MOTION": 2.00565063, "ECCENTRICITY": 0.01375641, "INCLINATION": 54.6569, "RA_OF_ASC_NODE": 276.7922, "ARG_OF_PERICENTER": 48.5542, "MEAN_ANOMALY": 312.6301, "EPHEMERIS_TYPE": 0, "CLASSIFICATION_TYPE": "U", "NORAD_CAT_ID": 39166, "ELEMENT_SET_NO": 999, "REV_AT_EPOCH": 9203, "BSTAR": 0, "MEAN_MOTION_DOT": -3.4e-07, "MEAN_MOTION_DDOT": 0}, "tle": {"line1": "1 39166U 13023A   25341.23083012 -.00000034  00000+0  00000+0 0  9994", "line2": "2 39166  54.6569 276.7922 0137564  48.5542 312.6301  2.00565063 92038"}}, "geometry": {"type": "Point", "coordinates": [-120.00401912533214, -40.15594335449625]}}, {"type": "Feature", "properties": {"norad_id": 39199, "name": "IRNSS-1A", "group": "gnss", "lat": -29.262817142351633, "lon": 14.373995673429821, "alt_km": 35828.41845405795, "timestamp": "2025-12-08T15:42:50.032966+00:00", "meta": {"OBJECT_NAME": "IRNSS-1A", "OBJECT_ID": "2013-034A", "EPOCH": "2025-12-02T19:49:26.431104", "MEAN_MOTION": 1.00279053, "ECCENTRICITY": 0.00216608, "INCLINATION": 35.2852, "RA_OF_ASC_NODE": 66.6964, "ARG_OF_PERICENTER": 185.4059, "MEAN_ANOMALY": 172.3398, "EPHEMERIS_TYPE": 0, "CLASSIFICATION_TYPE": "U", "NORAD_CAT_ID": 39199, "ELEMENT_SET_NO": 999, "REV_AT_EPOCH": 4539, "BSTAR": 0, "MEAN_MOTION_DOT": 6.5e-07, "MEAN_MOTION_DDOT": 0}, "tle": {"line1": "1 39199U 13034A   25336.82600036  .00000065  00000+0  00000+0 0  9995", "line2": "2 39199  35.2852  66.6964 0021660 185.4059 172.3398  1.00279053 45393"}}, "geometry": {"type": "Point", "coordinates": [14.373995673429821, -29.262817142351633]}}, {"type": "Feature", "properties": {"norad_id": 39533, "name": "GPS BIIF-5  (PRN 30)", "group": "gnss", "lat": -36.346484936546545, "lon": 124.23450201584816, "alt_km": 20169.854270686254, "timestamp": "2025-12-08T15:42:50.032978+00:00", "meta": {"OBJECT_NAME": "GPS BIIF-5  (PRN 30)", "OBJECT_ID": "2014-008A", "EPOCH": "2025-12-07T17:22:04.649088", "MEAN_MOTION": 2.00574086, "ECCENTRICITY": 0.007908, "INCLINATION": 53.6303, "RA_OF_ASC_NODE": 157.1293, "ARG_OF_PERICENTER": 226.426, "MEAN_ANOMALY": 132.9228, "EPHEMERIS_TYPE": 0, "CLASSIFICATION_TYPE": "U", "NORAD_CAT_ID": 39533, "ELEMENT_SET_NO": 999, "REV_AT_EPOCH": 8584, "BSTAR": 0, "MEAN_MOTION_DOT": 5.5e-07, "MEAN_MOTION_DDOT": 0}, "tle": {"line1": "1 39533U 14008A   25341.72366492  .00000055  00000+0  00000+0 0  9998", "line2": "2 39533  53.6303 157.1293 0079080 226.4260 132.9228  2.00574086 85843"}}, "geometry": {"type": "Point", "coordinates": [124.23450201584816, -36.346484936546545]}}, {"type": "Feature", "properties": {"norad_id": 39617, "name": "ASTRA 5B (EGNOS/PRN 123)", "group": "gnss", "lat": -0.04500461233224977, "lon": -23.098655030866297, "alt_km": 35781.715921326315, "timestamp": "2025-12-08T15:42:50.032990+00:00", "meta": {"OBJECT_NAME": "ASTRA 5B (EGNOS/PRN 123)", "OBJECT_ID": "2014-011B", "EPOCH": "2025-12-08T06:51:58.787712", "MEAN_MOTION": 1.00269816, "ECCENTRICITY": 0.00045522, "INCLINATION": 0.0542, "RA_OF_ASC_NODE": 27.3055, "ARG_OF_PERICENTER": 234.2462, "MEAN_ANOMALY": 302.2291, "EPHEMERIS_TYPE": 0, "CLASSIFICATION_TYPE": "U", "NORAD_CAT_ID": 39617, "ELEMENT_SET_NO": 999, "REV_AT_EPOCH": 4275, "BSTAR": 0, "MEAN_MOTION_DOT": 1.39e-06, "MEAN_MOTION_DDOT": 0}, "tle": {"line1": "1 39617U 14011B   25342.28609708  .00000139  00000+0  00000+0 0  9990", "line2": "2 39617   0.0542  27.3055 0004552 234.2462 302.2291  1.00269816 42750"}}, "geometry": {"type": "Point", "coordinates": [-23.098655030866297, -0.04500461233224977]}}]}